{"spkid": "50879556", "covariance": {"labels": ["e", "q", "tp", "node", "peri", "i"], "data": [["1.899074338931068E-14", "-2.077478626144343E-14", "-6.759255672640834E-12", "2.190480721767491E-13", "-5.670508980258146E-12", "1.533461097388837E-12"], ["-2.077478626144343E-14", "2.274245501641706E-14", "7.169408323605919E-12", "-2.35535937994138E-13", "6.052902289039745E-12", "-1.663749420544697E-12"], ["-6.759255672640834E-12", "7.169408323605919E-12", "7.631208937276707E-9", "-2.782483019837044E-10", "5.663202129936803E-9", "-8.932290042916926E-10"], ["2.190480721767491E-13", "-2.35535937994138E-13", "-2.782483019837044E-10", "1.025943637585856E-10", "-2.890073916327891E-10", "7.914034078363165E-11"], ["-5.670508980258146E-12", "6.052902289039745E-12", "5.663202129936803E-9", "-2.890073916327891E-10", "4.322323854165454E-9", "-7.411594043682054E-10"], ["1.533461097388837E-12", "-1.663749420544697E-12", "-8.932290042916926E-10", "7.914034078363165E-11", "-7.411594043682054E-10", "5.407513745452518E-10"]], "elements": [{"label": "e", "name": "e", "sigma": 1.37806906174221e-07, "units": null, "title": "eccentricity", "value": ".1353126079319039"}, {"label": "q", "title": "perihelion distance", "value": ".9614816979325809", "units": "au", "name": "q", "sigma": 1.50806017838868e-07}, {"name": "tp", "sigma": 8.73567910197983e-05, "units": "TDB", "title": "time of perihelion passage", "value": "2458206.621050139379", "label": "tp"}, {"label": "node", "sigma": 1.01288875874197e-05, "name": "om", "units": "deg", "title": "longitude of the ascending node", "value": "220.2096234767461"}, {"label": "peri", "units": "deg", "title": "argument of perihelion", "value": "41.41141667379409", "sigma": 6.57443826814539e-05, "name": "w"}, {"label": "i", "name": "i", "sigma": 2.32540614634358e-05, "units": "deg", "title": "inclination", "value": "20.80833298404063"}], "epoch": "2458178.5"}, "elements": [{"units": null, "value": ".1354615436832582", "title": "eccentricity", "name": "e", "sigma": "1.3634E-7", "label": "e"}, {"title": "semi-major axis", "value": "1.112128498933963", "units": "au", "sigma": "5.7854E-9", "name": "a", "label": "a"}, {"name": "q", "sigma": "1.5099E-7", "units": "au", "value": ".9614778556942241", "title": "perihelion distance", "label": "q"}, {"label": "i", "units": "deg", "value": "20.80656967929508", "title": "inclination; angle with respect to x-y ecliptic plane", "name": "i", "sigma": "2.3257E-5"}, {"units": "deg", "title": "longitude of the ascending node", "value": "220.1629954668936", "sigma": "1.0151E-5", "name": "om", "label": "node"}, {"label": "peri", "sigma": "6.5773E-5", "name": "w", "units": "deg", "title": "argument of perihelion", "value": "41.38426287596386"}, {"name": "ma", "sigma": "5.5285E-5", "title": "mean anomaly", "value": "357.6868362175708", "units": "deg", "label": "M"}, {"label": "tp", "name": "tp", "sigma": "6.5769E-5", "units": "TDB", "title": "time of perihelion passage", "value": "2461203.252547136597"}, {"label": "period", "title": "sidereal orbital period", "value": "428.3816721937678", "units": "d", "sigma": "3.3427E-6", "name": "per"}, {"label": "n", "name": "n", "sigma": "6.5576E-9", "units": "deg/d", "title": "mean motion", "value": ".8403720872473809"}, {"value": "1.262779142173703", "title": "aphelion distance", "units": "au", "name": "ad", "sigma": "6.5691E-9", "label": "Q"}], "epoch": "2461200.5"}